{
  "type": "FeatureCollection",
  "features": [
    {
      "type": "Feature",
      "properties": {
        "norad_id": 65943,
        "name": "E-KAGAKU-1",
        "group": "stations",
        "lat": -46.2512355334412,
        "lon": 63.70735687571854,
        "alt_km": 398.8795912633468,
        "timestamp": "2025-12-03T04:52:28.438544+00:00",
        "meta_object_name": "E-KAGAKU-1",
        "meta_object_id": "1998-067XQ",
        "meta_epoch": "2025-12-01T21:01:24.466368",
        "meta_mean_motion": 15.57573003,
        "meta_eccentricity": 0.0003749,
        "meta_inclination": 51.6307,
        "meta_ra_of_asc_node": 194.5023,
        "meta_arg_of_pericenter": 145.4218,
        "meta_mean_anomaly": 214.7019,
        "meta_ephemeris_type": 0,
        "meta_classification_type": "U",
        "meta_norad_cat_id": 65943,
        "meta_element_set_no": 999,
        "meta_rev_at_epoch": 816,
        "meta_bstar": 0.00091790589,
        "meta_mean_motion_dot": 0.00069131,
        "meta_mean_motion_ddot": 0,
        "tle_line1": "1 65943U 98067XQ  25335.87597762  .00069131  00000+0  91791-3 0  9995",
        "tle_line2": "2 65943  51.6307 194.5023 0003749 145.4218 214.7019 15.57573003  8168"
      },
      "geometry": {
        "type": "Point",
        "coordinates": [
          63.70735687571854,
          -46.2512355334412
        ]
      }
    },
    {
      "type": "Feature",
      "properties": {
        "norad_id": 66052,
        "name": "HRC MONOBLOCK CAMERA",
        "group": "stations",
        "lat": 30.41056077622246,
        "lon": -143.26227734676405,
        "alt_km": 404.33004530884136,
        "timestamp": "2025-12-03T04:52:28.438558+00:00",
        "meta_object_name": "HRC MONOBLOCK CAMERA",
        "meta_object_id": "1998-067XR",
        "meta_epoch": "2025-12-02T19:26:12.959808",
        "meta_mean_motion": 15.53170703,
        "meta_eccentricity": 0.0004432,
        "meta_inclination": 51.6293,
        "meta_ra_of_asc_node": 190.983,
        "meta_arg_of_pericenter": 144.6428,
        "meta_mean_anomaly": 215.4856,
        "meta_ephemeris_type": 0,
        "meta_classification_type": "U",
        "meta_norad_cat_id": 66052,
        "meta_element_set_no": 999,
        "meta_rev_at_epoch": 729,
        "meta_bstar": 0.00062502,
        "meta_mean_motion_dot": 0.00039695,
        "meta_mean_motion_ddot": 0,
        "tle_line1": "1 66052U 98067XR  25336.80987222  .00039695  00000+0  62502-3 0  9995",
        "tle_line2": "2 66052  51.6293 190.9830 0004432 144.6428 215.4856 15.53170703  7290"
      },
      "geometry": {
        "type": "Point",
        "coordinates": [
          -143.26227734676405,
          30.41056077622246
        ]
      }
    },
    {
      "type": "Feature",
      "properties": {
        "norad_id": 66174,
        "name": "HTV-X1",
        "group": "stations",
        "lat": 50.45888453138928,
        "lon": -96.63383545517902,
        "alt_km": 413.1131041300614,
        "timestamp": "2025-12-03T04:52:28.438596+00:00",
        "meta_object_name": "HTV-X1",
        "meta_object_id": "2025-241A",
        "meta_epoch": "2025-12-02T02:12:50.598720",
        "meta_mean_motion": 15.49237019,
        "meta_eccentricity": 0.00036389,
        "meta_inclination": 51.6314,
        "meta_ra_of_asc_node": 195.1903,
        "meta_arg_of_pericenter": 193.8265,
        "meta_mean_anomaly": 166.2625,
        "meta_ephemeris_type": 0,
        "meta_classification_type": "U",
        "meta_norad_cat_id": 66174,
        "meta_element_set_no": 999,
        "meta_rev_at_epoch": 51,
        "meta_bstar": 0.00017380747,
        "meta_mean_motion_dot": 9.217e-05,
        "meta_mean_motion_ddot": 0,
        "tle_line1": "1 66174U 25241A   25336.09225230  .00009217  00000+0  17381-3 0  9991",
        "tle_line2": "2 66174  51.6314 195.1903 0003638 193.8265 166.2625 15.49237019   513"
      },
      "geometry": {
        "type": "Point",
        "coordinates": [
          -96.63383545517902,
          50.45888453138928
        ]
      }
    },
    {
      "type": "Feature",
      "properties": {
        "norad_id": 66515,
        "name": "SZ-21 MODULE",
        "group": "stations",
        "lat": -7.880268149838402,
        "lon": 65.17472296227274,
        "alt_km": 386.16919116884947,
        "timestamp": "2025-12-03T04:52:28.438619+00:00",
        "meta_object_name": "SZ-21 MODULE",
        "meta_object_id": "2025-246C",
        "meta_epoch": "2025-12-02T13:34:42.175488",
        "meta_mean_motion": 15.61741357,
        "meta_eccentricity": 0.00057421,
        "meta_inclination": 41.4769,
        "meta_ra_of_asc_node": 78.0744,
        "meta_arg_of_pericenter": 200.196,
        "meta_mean_anomaly": 159.8653,
        "meta_ephemeris_type": 0,
        "meta_classification_type": "U",
        "meta_norad_cat_id": 66515,
        "meta_element_set_no": 999,
        "meta_rev_at_epoch": 285,
        "meta_bstar": 0.00037188642,
        "meta_mean_motion_dot": 0.00032894,
        "meta_mean_motion_ddot": 0,
        "tle_line1": "1 66515U 25246C   25336.56576592  .00032894  00000+0  37189-3 0  9992",
        "tle_line2": "2 66515  41.4769  78.0744 0005742 200.1960 159.8653 15.61741357  2854"
      },
      "geometry": {
        "type": "Point",
        "coordinates": [
          65.17472296227274,
          -7.880268149838402
        ]
      }
    },
    {
      "type": "Feature",
      "properties": {
        "norad_id": 66645,
        "name": "SHENZHOU-22",
        "group": "stations",
        "lat": -8.033865970505095,
        "lon": -96.22614690931933,
        "alt_km": 396.51518106129333,
        "timestamp": "2025-12-03T04:52:28.438638+00:00",
        "meta_object_name": "SHENZHOU-22",
        "meta_object_id": "2025-272A",
        "meta_epoch": "2025-12-02T14:12:45.225504",
        "meta_mean_motion": 15.58538929,
        "meta_eccentricity": 0.00102296,
        "meta_inclination": 41.4674,
        "meta_ra_of_asc_node": 78.2835,
        "meta_arg_of_pericenter": 314.561,
        "meta_mean_anomaly": 45.4392,
        "meta_ephemeris_type": 0,
        "meta_classification_type": "U",
        "meta_norad_cat_id": 66645,
        "meta_element_set_no": 999,
        "meta_rev_at_epoch": 26245,
        "meta_bstar": 0.00035376094,
        "meta_mean_motion_dot": 0.00027659,
        "meta_mean_motion_ddot": 0,
        "tle_line1": "1 66645U 25272A   25336.59219011  .00027659  00000+0  35376-3 0  9997",
        "tle_line2": "2 66645  41.4674  78.2835 0010229 314.5610  45.4392 15.58538929262453"
      },
      "geometry": {
        "type": "Point",
        "coordinates": [
          -96.22614690931933,
          -8.033865970505095
        ]
      }
    },
    {
      "type": "Feature",
      "properties": {
        "norad_id": 66646,
        "name": "CZ-2F R/B",
        "group": "stations",
        "lat": 38.94303052126311,
        "lon": 137.4661253736904,
        "alt_km": 273.54662874205314,
        "timestamp": "2025-12-03T04:52:28.438658+00:00",
        "meta_object_name": "CZ-2F R/B",
        "meta_object_id": "2025-272B",
        "meta_epoch": "2025-11-26T11:17:54.506400",
        "meta_mean_motion": 16.01945612,
        "meta_eccentricity": 0.01210796,
        "meta_inclination": 41.4431,
        "meta_ra_of_asc_node": 114.9009,
        "meta_arg_of_pericenter": 133.7676,
        "meta_mean_anomaly": 227.3272,
        "meta_ephemeris_type": 0,
        "meta_classification_type": "U",
        "meta_norad_cat_id": 66646,
        "meta_element_set_no": 999,
        "meta_rev_at_epoch": 21,
        "meta_bstar": 0.00029319366,
        "meta_mean_motion_dot": 0.00449059,
        "meta_mean_motion_ddot": 7.567612e-06,
        "tle_line1": "1 66646U 25272B   25330.47076975  .00449059  75676-5  29319-3 0  9998",
        "tle_line2": "2 66646  41.4431 114.9009 0121079 133.7676 227.3272 16.01945612   217"
      },
      "geometry": {
        "type": "Point",
        "coordinates": [
          137.4661253736904,
          38.94303052126311
        ]
      }
    },
    {
      "type": "Feature",
      "properties": {
        "norad_id": 66664,
        "name": "SOYUZ-MS 28",
        "group": "stations",
        "lat": 50.45889578393028,
        "lon": -96.6337572495829,
        "alt_km": 413.1134214381791,
        "timestamp": "2025-12-03T04:52:28.438678+00:00",
        "meta_object_name": "SOYUZ-MS 28",
        "meta_object_id": "2025-275A",
        "meta_epoch": "2025-12-02T02:12:50.597856",
        "meta_mean_motion": 15.49237019,
        "meta_eccentricity": 0.0003639,
        "meta_inclination": 51.6314,
        "meta_ra_of_asc_node": 195.1903,
        "meta_arg_of_pericenter": 193.8265,
        "meta_mean_anomaly": 166.2625,
        "meta_ephemeris_type": 0,
        "meta_classification_type": "U",
        "meta_norad_cat_id": 66664,
        "meta_element_set_no": 999,
        "meta_rev_at_epoch": 79,
        "meta_bstar": 0.00017381,
        "meta_mean_motion_dot": 9.217e-05,
        "meta_mean_motion_ddot": 0,
        "tle_line1": "1 66664U 25275A   25336.09225229  .00009217  00000+0  17381-3 0  9990",
        "tle_line2": "2 66664  51.6314 195.1903 0003639 193.8265 166.2625 15.49237019   798"
      },
      "geometry": {
        "type": "Point",
        "coordinates": [
          -96.6337572495829,
          50.45889578393028
        ]
      }
    }
  ]
}